[{"OBJECT_NAME":"QIANFAN-103","OBJECT_ID":"2025-233N","EPOCH":"2026-03-09T22:31:27.635520","MEAN_MOTION":13.51006413,"ECCENTRICITY":0.00019687,"INCLINATION":88.9944,"RA_OF_ASC_NODE":53.2219,"ARG_OF_PERICENTER":91.2832,"MEAN_ANOMALY":268.8545,"EPHEMERIS_TYPE":0,"CLASSIFICATION_TYPE":"U","NORAD_CAT_ID":66045,"ELEMENT_SET_NO":999,"REV_AT_EPOCH":1978,"BSTAR":6.7265672e-5,"MEAN_MOTION_DOT":5.5e-7,"MEAN_MOTION_DDOT":0},{"OBJECT_NAME":"NNSS 19 (TRANSIT 19)","OBJECT_ID":"1970-067A","EPOCH":"2026-03-09T22:13:29.322048","MEAN_MOTION":13.51338519,"ECCENTRICITY":0.01728585,"INCLINATION":90.0059,"RA_OF_ASC_NODE":234.5813,"ARG_OF_PERICENTER":40.861,"MEAN_ANOMALY":320.5352,"EPHEMERIS_TYPE":0,"CLASSIFICATION_TYPE":"U","NORAD_CAT_ID":4507,"ELEMENT_SET_NO":999,"REV_AT_EPOCH":73399,"BSTAR":0.00021540294,"MEAN_MOTION_DOT":1.64e-6,"MEAN_MOTION_DDOT":0}]
